satname,norad_id,inclination_deg,eccentricity,mean_motion_rev_per_day,perigee_km,apogee_km,l1,l2
STARLINK-1316,45415,53.1564,0.0003102,15.40428956,442.7258938060322,446.95887021463113,1 45415U 20019BH  26176.67583054  .00061404  00000+0  14924-2 0  9997,2 45415  53.1564 343.8294 0003102 140.1118 220.0115 15.40428956346581
STARLINK-1286,45417,53.0457,0.0003308,15.6607766,367.9088719759666,372.37353283467655,1 45417U 20019BK  26176.68210367  .00071258  00000+0  68147-3 0  9999,2 45417  53.0457 326.7902 0003308 310.3189  49.7537 15.66077660347053
STARLINK-1308,45419,53.0456,0.000572,15.67495407,362.2138406905797,369.92921524657686,1 45419U 20019BM  26176.69080985  .00064723  00000+0  58523-3 0  9999,2 45419  53.0456 345.9495 0005720  94.8214 265.3455 15.67495407346538
STARLINK-1329,45531,53.0399,0.0002195,15.75698421,341.1692659284172,344.11968899702424,1 45531U 20025A   26176.52978752  .00089339  00000+0  56920-3 0  9990,2 45531  53.0399 269.4347 0002195 314.8096  45.2744 15.75698421342375
STARLINK-1338,45532,53.043,0.0002026,15.72941651,349.131618197438,351.8580598186045,1 45532U 20025B   26176.91668980 -.00038585  00000+0 -27471-3 0  9991,2 45532  53.0430 274.7742 0002026  54.7358 255.4787 15.72941651  5971
STARLINK-1350,45535,53.0716,0.0001335,15.3871924,448.9840455960557,450.8071302970375,1 45535U 20025E   26176.50800561  .00028963  00000+0  75307-3 0  9990,2 45535  53.0716 245.7806 0001335  51.8007 308.3116 15.38719240342743
STARLINK-1362,45538,53.1564,0.0003184,15.38913144,447.14815542039287,451.49588132329336,1 45538U 20025H   26176.79954764  .00011418  00000+0  30184-3 0  9990,2 45538  53.1564 315.8018 0003184 266.0948  93.9693 15.38913144341778
STARLINK-1368,45540,53.1567,0.0002196,15.39067847,447.3652825173531,450.3637015726599,1 45540U 20025K   26176.81147793  .00055931  00000+0  14235-2 0  9998,2 45540  53.1567 316.0971 0002196 245.1836 114.8941 15.39067847341760
STARLINK-1371,45542,53.0419,0.0001749,15.70205167,357.131939785354,359.48834899646226,1 45542U 20025M   26176.91668980 -.00078933  00000+0 -63937-3 0  9990,2 45542  53.0419 285.0393 0001749  53.5763 129.8049 15.70205167  5905
STARLINK-1372,45543,53.1556,0.0001718,15.39500434,446.41288538055505,448.75820364685023,1 45543U 20025N   26176.76451691  .00041457  00000+0  10448-2 0  9990,2 45543  53.1556 315.7550 0001718 236.5197 123.5644 15.39500434340864
STARLINK-1373,45544,53.0435,0.0002028,15.7183476,352.2881438131062,355.0185579794297,1 45544U 20025P   26176.67829891  .00070260  00000+0  53058-3 0  9991,2 45544  53.0435 281.0693 0002028  48.5475 311.5716 15.71834760342227
STARLINK-1327,45555,53.0393,0.0001895,15.73547519,347.49281541019536,350.0423122398852,1 45555U 20025AA  26176.91668980 -.00026945  00000+0 -18531-3 0  9990,2 45555  53.0393 257.2275 0001895  57.8329 241.4721 15.73547519  6011
STARLINK-1356,45564,53.0424,0.0003003,15.66692118,366.3506553166835,370.4026114048793,1 45564U 20025AK  26176.67034832  .00056456  00000+0  52881-3 0  9990,2 45564  53.0424 272.0599 0003003   2.1324 357.9703 15.66692118342341
STARLINK-1357,45565,53.0418,0.0001907,15.71530907,353.2371256821307,355.8049614599495,1 45565U 20025AL  26176.52397005  .00070434  00000+0  53872-3 0  9992,2 45565  53.0418 228.9203 0001907 157.1222 202.9880 15.71530907342940
STARLINK-1361,45567,53.0413,0.0001933,15.70209224,356.99638794596194,359.60069392608784,1 45567U 20025AN  26176.91668980 -.00046763  00000+0 -37528-3 0  9990,2 45567  53.0413 269.1558 0001933  58.9705 270.3633 15.70209224  5956
STARLINK-1376,45570,53.1558,9.03e-05,15.3997537,445.56584535502043,446.79831738111625,1 45570U 20025AR  26176.60705198  .00036146  00000+0  89880-3 0  9993,2 45570  53.1558 292.8486 0000903 226.4853 133.6077 15.39975370342073
STARLINK-1320,45572,53.0369,0.0008907,15.92356539,289.7459233198397,301.6346792743707,1 45572U 20025AT  26176.22663750  .00230912  31150-4  67400-3 0  9996,2 45572  53.0369 166.9656 0008907  35.2804 324.8810 15.92356539343796
STARLINK-1321,45573,53.0406,0.0001666,15.70701573,355.7686852771394,358.0127965204074,1 45573U 20025AU  26176.91668980 -.00041890  00000+0 -32863-3 0  9990,2 45573  53.0406 252.9791 0001666  69.6892 241.5765 15.70701573  6000
STARLINK-1331,45578,53.0453,0.0001545,15.70456131,356.55178429175703,358.633124693195,1 45578U 20025AZ  26176.91668980 -.00083131  00000+0 -66694-3 0  9998,2 45578  53.0453 259.9157 0001545  66.6462 100.0424 15.70456131  5643
STARLINK-1333,45580,53.1558,0.0001711,15.36840633,454.2895381219714,456.6279945932183,1 45580U 20025BB  26176.68995216  .00045776  00000+0  12559-2 0  9991,2 45580  53.1558 294.3582 0001711 300.3218  59.7616 15.36840633342069
STARLINK-1335,45581,53.1541,0.0002164,15.38534768,448.96366506046616,451.9190737787503,1 45581U 20025BC  26176.70000091  .00049502  00000+0  12842-2 0  9999,2 45581  53.1541 290.8125 0002164 222.7354 137.3483 15.38534768342108
STARLINK-1337,45582,53.0422,0.0001857,15.77210628,337.10067998993145,339.59518249339544,1 45582U 20025BD  26176.82831596  .00086661  00000+0  51688-3 0  9994,2 45582  53.0422 248.4326 0001857  91.1488 268.9744 15.77210628342685
STARLINK-1347,45586,53.0359,0.000121,15.70465889,356.7495331957871,358.379572971633,1 45586U 20025BH  26176.38078836  .00065012  00000+0  52062-3 0  9993,2 45586  53.0359 221.9435 0001210  25.5443 334.5633 15.70465889343019
STARLINK-1364,45589,53.041,0.0003204,15.71289007,353.05465611717773,357.36938616992757,1 45589U 20025BL  26176.50706999  .00070473  00000+0  54444-3 0  9991,2 45589  53.0410 257.9264 0003204 359.0867   1.0144 15.71289007342524
STARLINK-1365,45590,53.0442,9.91e-05,15.66910072,367.08248381719113,368.4195188190515,1 45590U 20025BM  26176.91668980 -.00043803  00000+0 -40240-3 0  9993,2 45590  53.0442 291.1133 0000991  54.9173 328.1240 15.66910072  5935
STARLINK-1443,45660,53.132,0.000117,15.34034461,462.9894094342044,464.59042033228616,1 45660U 20035D   26176.58773300  .00044262  00000+0  13287-2 0  9996,2 45660  53.1320 283.8570 0001170  38.6618 321.4467 15.34034461335279
STARLINK-1446,45663,53.0201,0.0001958,15.48652523,419.33574935572324,421.9981609845672,1 45663U 20035G   26176.47644339  .00027726  00000+0  51643-3 0  9991,2 45663  53.0201 205.2789 0001958 323.4471  36.6402 15.48652523336348
STARLINK-1448,45665,53.0419,0.000199,15.74644782,344.3041534497179,346.98021756554954,1 45665U 20035J   26176.91668980 -.00015059  00000+0 -96714-4 0  9997,2 45665  53.0419 243.2214 0001990  64.4974 316.8576 15.74644782  5976
STARLINK-1451,45668,53.0511,2.71e-05,15.15044255,520.6572465229019,521.0311713044257,1 45668U 20035M   26176.71058156  .00022017  00000+0  11764-2 0  9996,2 45668  53.0511 296.4248 0000271 254.7192 105.3771 15.15044255335097
STARLINK-1452,45669,53.0228,0.0007514,15.62012454,376.7651397010686,386.92404003432057,1 45669U 20035N   26176.52706332  .00089822  00000+0  10033-2 0  9997,2 45669  53.0228 221.5372 0007514   7.9921 352.1210 15.62012454336128
STARLINK-1453,45670,53.0373,0.0001486,15.74963851,343.73503091756993,345.7330681934982,1 45670U 20035P   26176.91668980  .00052826  00000+0  35074-3 0  9995,2 45670  53.0373 203.4440 0001486  82.7600 148.9223 15.74963851  5760
STARLINK-1454,45671,53.0418,0.0001277,15.73182134,348.94995218744316,350.6682696241687,1 45671U 20035Q   26176.91668980 -.00024022  00000+0 -16732-3 0  9995,2 45671  53.0418 244.6669 0001277  68.4941 178.0228 15.73182134  5965
STARLINK-1456,45673,53.0403,0.0001235,15.69999188,358.0673081002933,359.7313560743196,1 45673U 20035S   26176.91668980 -.00026598  00000+0 -21275-3 0  9995,2 45673  53.0403 239.4645 0001235  62.2641 259.2575 15.69999188  6014
STARLINK-1458,45675,53.044,0.000404,15.6029545,384.06992603228264,389.5359975213978,1 45675U 20035U   26176.59805015  .00089689  00000+0  10712-2 0  9994,2 45675  53.0440 256.7574 0004040   4.3620 355.7427 15.60295450335601
STARLINK-1460,45676,53.1555,0.000286,15.36682988,453.9715789012316,457.8806630064173,1 45676U 20035V   26176.73269976  .00045072  00000+0  12431-2 0  9999,2 45676  53.1555 281.3692 0002860 294.0660  66.0044 15.36682988335285
STARLINK-1392,45677,53.1519,0.0003469,15.40138992,443.3315474105066,448.0659246441637,1 45677U 20035W   26176.77623237  .00050338  00000+0  12387-2 0  9999,2 45677  53.1519 279.3601 0003469 311.5377  48.5330 15.40138992335356
STARLINK-1394,45679,53.0386,0.0001237,15.68685948,361.82495288625614,363.49262576453566,1 45679U 20035Y   26176.55035494  .00059966  00000+0  51754-3 0  9997,2 45679  53.0386 231.6218 0001237  69.8741 290.2408 15.68685948335982
STARLINK-1402,45685,53.0381,0.0004714,15.60442865,383.1881074056637,389.565691109884,1 45685U 20035AE  26176.51561359  .00063981  00000+0  76398-3 0  9997,2 45685  53.0381 223.6000 0004714 303.6460  56.4102 15.60442865336103
STARLINK-1404,45686,53.1561,0.0003514,15.46355975,425.0052551616591,429.78818425987265,1 45686U 20035AF  26176.63139845  .00026526  00000+0  53534-3 0  9993,2 45686  53.1561 260.8841 0003514 301.1579  58.9084 15.46355975335601
STARLINK-1413,45689,53.1562,0.0004063,15.3746155,450.84302938279234,456.39451412291965,1 45689U 20035AJ  26176.64192492  .00790773  00000+0  19674-1 0  9991,2 45689  53.1562 266.4466 0004063 322.4736  37.5984 15.37461550335442
STARLINK-1417,45693,53.0512,0.0002544,15.17616027,511.2948191957257,514.8010540914893,1 45693U 20035AN  26176.71281184  .00024066  00000+0  11937-2 0  9991,2 45693  53.0512 282.7455 0002544 210.4571 149.6275 15.17616027335273
STARLINK-1420,45695,53.0431,0.0001648,15.72450661,350.78631162522834,353.0045303111792,1 45695U 20035AQ  26176.91668980  .00045431  00000+0  33686-3 0  9993,2 45695  53.0431 212.5846 0001648  91.0766 305.6360 15.72450661  5862
STARLINK-1422,45696,53.1555,0.000145,15.38413077,449.8112697677843,451.79166192287903,1 45696U 20035AR  26176.77190003  .00007313  00000+0  20025-3 0  9994,2 45696  53.1555 265.7498 0001450  79.0071 281.1096 15.38413077335547
